SL-16 R/B               
1 25400U 98043G   26060.80313604  .00000075  00000+0  50509-4 0  9998
2 25400  98.8241  14.1114 0010581  42.0512 318.1478 14.26047694437869
SL-16 R/B               
1 25407U 98045B   26060.80353481 -.00000249  00000+0 -10141-3 0  9996
2 25407  71.0109 198.1568 0006295  20.3267 339.8106 14.16189940425989
ISS (ZARYA)             
1 25544U 98067A   26060.57520306  .00009927  00000+0  19202-3 0  9995
2 25544  51.6320 112.4722 0008284 146.1756 213.9762 15.48382986555076
CZ-4B R/B               
1 25732U 99025C   26060.85662164  .00000060  00000+0  49655-4 0  9994
2 25732  98.6644 105.3232 0037188   9.2250 164.4503 14.18263508387053
OKEAN-O                 
1 25860U 99039A   26060.74350940  .00000793  00000+0  11090-3 0  9999
2 25860  97.9460 120.7152 0001485  71.7340 288.4033 14.80320538433211
SL-16 R/B               
1 25861U 99039B   26060.73086505  .00000681  00000+0  93200-4 0  9992
2 25861  97.9983 119.8387 0013428 284.6887  75.2837 14.81718487435684
DELTA 2 R/B             
1 25876U 99041E   26060.79612991  .00001723  00000+0  31488-3 0  9998
2 25876  51.7655 332.8064 0502302 325.1266  31.7687 14.11807275361910
HELIOS 1B               
1 25977U 99064A   26060.70994324  .00002008  00000+0  22703-3 0  9996
2 25977  98.1705 322.7185 0002501  85.6161 274.5340 14.87658510684070
TERRA                   
1 25994U 99068A   26060.78122913  .00000526  00000+0  11626-3 0  9999
2 25994  97.9611 114.5175 0002160 171.2986 304.7594 14.61004842393929
SL-16 R/B               
1 26070U 00006B   26060.60496228  .00000282  00000+0  16729-3 0  9991
2 26070  71.0014 114.8380 0017304 201.2993 158.7411 14.15823208347416
TITAN 4B R/B            
1 26474U 00047B   26060.81161288  .00004820  00000+0  30348-3 0  9997
2 26474  67.9881  62.6619 0037872  44.8135 315.6061 15.09471733391720
ENVISAT                 
1 27386U 02009A   26060.88565547  .00000143  00000+0  60035-4 0  9994
2 27386  98.3714  14.6694 0001350  85.2599 292.4302 14.39033464258056
