CCSDS_OMM_VERS = 2.0
CREATION_DATE  = 
ORIGINATOR     = 

OBJECT_NAME    = SL-16 R/B
OBJECT_ID      = 1998-043G
CENTER_NAME    = EARTH
REF_FRAME      = TEME
TIME_SYSTEM    = UTC
MEAN_ELEMENT_THEORY = SGP/SGP4

EPOCH          = 2026-03-01T19:16:30.953856
MEAN_MOTION    = 14.26047694
ECCENTRICITY   = .0010581
INCLINATION    = 98.8241
RA_OF_ASC_NODE = 14.1114
ARG_OF_PERICENTER = 42.0512
MEAN_ANOMALY   = 318.1478

EPHEMERIS_TYPE = 0
CLASSIFICATION_TYPE = U
NORAD_CAT_ID   = 25400
ELEMENT_SET_NO = 999
REV_AT_EPOCH   = 43786
BSTAR          = .50509E-4
MEAN_MOTION_DOT = .75E-6
MEAN_MOTION_DDOT = 0

CCSDS_OMM_VERS = 2.0
CREATION_DATE  = 
ORIGINATOR     = 

OBJECT_NAME    = SL-16 R/B
OBJECT_ID      = 1998-045B
CENTER_NAME    = EARTH
REF_FRAME      = TEME
TIME_SYSTEM    = UTC
MEAN_ELEMENT_THEORY = SGP/SGP4

EPOCH          = 2026-03-01T19:17:05.407584
MEAN_MOTION    = 14.16189940
ECCENTRICITY   = .0006295
INCLINATION    = 71.0109
RA_OF_ASC_NODE = 198.1568
ARG_OF_PERICENTER = 20.3267
MEAN_ANOMALY   = 339.8106

EPHEMERIS_TYPE = 0
CLASSIFICATION_TYPE = U
NORAD_CAT_ID   = 25407
ELEMENT_SET_NO = 999
REV_AT_EPOCH   = 42598
BSTAR          = -.10141E-3
MEAN_MOTION_DOT = -.249E-5
MEAN_MOTION_DDOT = 0

CCSDS_OMM_VERS = 2.0
CREATION_DATE  = 
ORIGINATOR     = 

OBJECT_NAME    = ISS (ZARYA)
OBJECT_ID      = 1998-067A
CENTER_NAME    = EARTH
REF_FRAME      = TEME
TIME_SYSTEM    = UTC
MEAN_ELEMENT_THEORY = SGP/SGP4

EPOCH          = 2026-03-01T13:48:17.544384
MEAN_MOTION    = 15.48382986
ECCENTRICITY   = .0008284
INCLINATION    = 51.6320
RA_OF_ASC_NODE = 112.4722
ARG_OF_PERICENTER = 146.1756
MEAN_ANOMALY   = 213.9762

EPHEMERIS_TYPE = 0
CLASSIFICATION_TYPE = U
NORAD_CAT_ID   = 25544
ELEMENT_SET_NO = 999
REV_AT_EPOCH   = 55507
BSTAR          = .19202E-3
MEAN_MOTION_DOT = .9927E-4
MEAN_MOTION_DDOT = 0

CCSDS_OMM_VERS = 2.0
CREATION_DATE  = 
ORIGINATOR     = 

OBJECT_NAME    = CZ-4B R/B
OBJECT_ID      = 1999-025C
CENTER_NAME    = EARTH
REF_FRAME      = TEME
TIME_SYSTEM    = UTC
MEAN_ELEMENT_THEORY = SGP/SGP4

EPOCH          = 2026-03-01T20:33:32.109696
MEAN_MOTION    = 14.18263508
ECCENTRICITY   = .0037188
INCLINATION    = 98.6644
RA_OF_ASC_NODE = 105.3232
ARG_OF_PERICENTER = 9.2250
MEAN_ANOMALY   = 164.4503

EPHEMERIS_TYPE = 0
CLASSIFICATION_TYPE = U
NORAD_CAT_ID   = 25732
ELEMENT_SET_NO = 999
REV_AT_EPOCH   = 38705
BSTAR          = .49655E-4
MEAN_MOTION_DOT = .6E-6
MEAN_MOTION_DDOT = 0

CCSDS_OMM_VERS = 2.0
CREATION_DATE  = 
ORIGINATOR     = 

OBJECT_NAME    = OKEAN-O
OBJECT_ID      = 1999-039A
CENTER_NAME    = EARTH
REF_FRAME      = TEME
TIME_SYSTEM    = UTC
MEAN_ELEMENT_THEORY = SGP/SGP4

EPOCH          = 2026-03-01T17:50:39.212160
MEAN_MOTION    = 14.80320538
ECCENTRICITY   = .0001485
INCLINATION    = 97.9460
RA_OF_ASC_NODE = 120.7152
ARG_OF_PERICENTER = 71.7340
MEAN_ANOMALY   = 288.4033

EPHEMERIS_TYPE = 0
CLASSIFICATION_TYPE = U
NORAD_CAT_ID   = 25860
ELEMENT_SET_NO = 999
REV_AT_EPOCH   = 43321
BSTAR          = .1109E-3
MEAN_MOTION_DOT = .793E-5
MEAN_MOTION_DDOT = 0

CCSDS_OMM_VERS = 2.0
CREATION_DATE  = 
ORIGINATOR     = 

OBJECT_NAME    = SL-16 R/B
OBJECT_ID      = 1999-039B
CENTER_NAME    = EARTH
REF_FRAME      = TEME
TIME_SYSTEM    = UTC
MEAN_ELEMENT_THEORY = SGP/SGP4

EPOCH          = 2026-03-01T17:32:26.740320
MEAN_MOTION    = 14.81718487
ECCENTRICITY   = .0013428
INCLINATION    = 97.9983
RA_OF_ASC_NODE = 119.8387
ARG_OF_PERICENTER = 284.6887
MEAN_ANOMALY   = 75.2837

EPHEMERIS_TYPE = 0
CLASSIFICATION_TYPE = U
NORAD_CAT_ID   = 25861
ELEMENT_SET_NO = 999
REV_AT_EPOCH   = 43568
BSTAR          = .932E-4
MEAN_MOTION_DOT = .681E-5
MEAN_MOTION_DDOT = 0

CCSDS_OMM_VERS = 2.0
CREATION_DATE  = 
ORIGINATOR     = 

OBJECT_NAME    = DELTA 2 R/B
OBJECT_ID      = 1999-041E
CENTER_NAME    = EARTH
REF_FRAME      = TEME
TIME_SYSTEM    = UTC
MEAN_ELEMENT_THEORY = SGP/SGP4

EPOCH          = 2026-03-01T19:06:25.624224
MEAN_MOTION    = 14.11807275
ECCENTRICITY   = .0502302
INCLINATION    = 51.7655
RA_OF_ASC_NODE = 332.8064
ARG_OF_PERICENTER = 325.1266
MEAN_ANOMALY   = 31.7687

EPHEMERIS_TYPE = 0
CLASSIFICATION_TYPE = U
NORAD_CAT_ID   = 25876
ELEMENT_SET_NO = 999
REV_AT_EPOCH   = 36191
BSTAR          = .31488E-3
MEAN_MOTION_DOT = .1723E-4
MEAN_MOTION_DDOT = 0

CCSDS_OMM_VERS = 2.0
CREATION_DATE  = 
ORIGINATOR     = 

OBJECT_NAME    = HELIOS 1B
OBJECT_ID      = 1999-064A
CENTER_NAME    = EARTH
REF_FRAME      = TEME
TIME_SYSTEM    = UTC
MEAN_ELEMENT_THEORY = SGP/SGP4

EPOCH          = 2026-03-01T17:02:19.095936
MEAN_MOTION    = 14.87658510
ECCENTRICITY   = .0002501
INCLINATION    = 98.1705
RA_OF_ASC_NODE = 322.7185
ARG_OF_PERICENTER = 85.6161
MEAN_ANOMALY   = 274.5340

EPHEMERIS_TYPE = 0
CLASSIFICATION_TYPE = U
NORAD_CAT_ID   = 25977
ELEMENT_SET_NO = 999
REV_AT_EPOCH   = 68407
BSTAR          = .22703E-3
MEAN_MOTION_DOT = .2008E-4
MEAN_MOTION_DDOT = 0

CCSDS_OMM_VERS = 2.0
CREATION_DATE  = 
ORIGINATOR     = 

OBJECT_NAME    = TERRA
OBJECT_ID      = 1999-068A
CENTER_NAME    = EARTH
REF_FRAME      = TEME
TIME_SYSTEM    = UTC
MEAN_ELEMENT_THEORY = SGP/SGP4

EPOCH          = 2026-03-01T18:44:58.196832
MEAN_MOTION    = 14.61004842
ECCENTRICITY   = .000216
INCLINATION    = 97.9611
RA_OF_ASC_NODE = 114.5175
ARG_OF_PERICENTER = 171.2986
MEAN_ANOMALY   = 304.7594

EPHEMERIS_TYPE = 0
CLASSIFICATION_TYPE = U
NORAD_CAT_ID   = 25994
ELEMENT_SET_NO = 999
REV_AT_EPOCH   = 39392
BSTAR          = .11626E-3
MEAN_MOTION_DOT = .526E-5
MEAN_MOTION_DDOT = 0

CCSDS_OMM_VERS = 2.0
CREATION_DATE  = 
ORIGINATOR     = 

OBJECT_NAME    = SL-16 R/B
OBJECT_ID      = 2000-006B
CENTER_NAME    = EARTH
REF_FRAME      = TEME
TIME_SYSTEM    = UTC
MEAN_ELEMENT_THEORY = SGP/SGP4

EPOCH          = 2026-03-01T14:31:08.740992
MEAN_MOTION    = 14.15823208
ECCENTRICITY   = .0017304
INCLINATION    = 71.0014
RA_OF_ASC_NODE = 114.8380
ARG_OF_PERICENTER = 201.2993
MEAN_ANOMALY   = 158.7411

EPHEMERIS_TYPE = 0
CLASSIFICATION_TYPE = U
NORAD_CAT_ID   = 26070
ELEMENT_SET_NO = 999
REV_AT_EPOCH   = 34741
BSTAR          = .16729E-3
MEAN_MOTION_DOT = .282E-5
MEAN_MOTION_DDOT = 0

CCSDS_OMM_VERS = 2.0
CREATION_DATE  = 
ORIGINATOR     = 

OBJECT_NAME    = TITAN 4B R/B
OBJECT_ID      = 2000-047B
CENTER_NAME    = EARTH
REF_FRAME      = TEME
TIME_SYSTEM    = UTC
MEAN_ELEMENT_THEORY = SGP/SGP4

EPOCH          = 2026-03-01T19:28:43.352832
MEAN_MOTION    = 15.09471733
ECCENTRICITY   = .0037872
INCLINATION    = 67.9881
RA_OF_ASC_NODE = 62.6619
ARG_OF_PERICENTER = 44.8135
MEAN_ANOMALY   = 315.6061

EPHEMERIS_TYPE = 0
CLASSIFICATION_TYPE = U
NORAD_CAT_ID   = 26474
ELEMENT_SET_NO = 999
REV_AT_EPOCH   = 39172
BSTAR          = .30348E-3
MEAN_MOTION_DOT = .482E-4
MEAN_MOTION_DDOT = 0

CCSDS_OMM_VERS = 2.0
CREATION_DATE  = 
ORIGINATOR     = 

OBJECT_NAME    = ENVISAT
OBJECT_ID      = 2002-009A
CENTER_NAME    = EARTH
REF_FRAME      = TEME
TIME_SYSTEM    = UTC
MEAN_ELEMENT_THEORY = SGP/SGP4

EPOCH          = 2026-03-01T21:15:20.632608
MEAN_MOTION    = 14.39033464
ECCENTRICITY   = .000135
INCLINATION    = 98.3714
RA_OF_ASC_NODE = 14.6694
ARG_OF_PERICENTER = 85.2599
MEAN_ANOMALY   = 292.4302

EPHEMERIS_TYPE = 0
CLASSIFICATION_TYPE = U
NORAD_CAT_ID   = 27386
ELEMENT_SET_NO = 999
REV_AT_EPOCH   = 25805
BSTAR          = .60035E-4
MEAN_MOTION_DOT = .143E-5
MEAN_MOTION_DDOT = 0

